ONEWEB-0446             
1 51640U 22012U   25354.26507327 -.00000162  00000+0 -50030-3 0  9995
2 51640  87.8808  71.9589 0001535 105.3658 254.7639 13.10375674185892
ONEWEB-0448             
1 51641U 22012V   25354.27005849  .00000120  00000+0  30678-3 0  9997
2 51641  87.8804  71.9569 0001747 102.9346 257.1976 13.10376668185861
ONEWEB-0449             
1 51642U 22012W   25354.19867901  .00000360  00000+0  99468-3 0  9992
2 51642  87.8810  71.9442 0002019 114.8974 245.2363 13.10376304185866
ONEWEB-0451             
1 51643U 22012X   25354.60697365  .00000008  00000+0 -13769-4 0  9995
2 51643  87.9115  41.3377 0001864 101.1681 258.9660 13.17648105190141
ONEWEB-0452             
1 51644U 22012Y   25354.52935607  .00000037  00000+0  62654-4 0  9999
2 51644  87.9102  41.4072 0002143 101.6842 258.4530 13.17647888190144
ONEWEB-0456             
1 51646U 22012AA  25354.51407484  .00000696  00000+0  19565-2 0  9999
2 51646  87.8815  71.8513 0001740  97.4995 262.6330 13.10374734185943
ONEWEB-0457             
1 51647U 22012AB  25354.26174449 -.00000312  00000+0 -93079-3 0  9994
2 51647  87.8808  71.9471 0001527 118.9167 241.2114 13.10375053185918
ONEWEB-0458             
1 51648U 22012AC  25354.51241485  .00000626  00000+0  17576-2 0  9991
2 51648  87.8812  71.8714 0001889 105.8001 254.3335 13.10375015185903
